OBJECT_NAME,OBJECT_ID,EPOCH,MEAN_MOTION,ECCENTRICITY,INCLINATION,RA_OF_ASC_NODE,ARG_OF_PERICENTER,MEAN_ANOMALY,EPHEMERIS_TYPE,CLASSIFICATION_TYPE,NORAD_CAT_ID,ELEMENT_SET_NO,REV_AT_EPOCH,BSTAR,MEAN_MOTION_DOT,MEAN_MOTION_DDOT
LDPE-2,2022-144A,2026-07-19T07:54:38.653056,1.00545431,.00024631,5.6744,63.2752,107.1011,118.9137,0,U,54219,999,1216,0,-.4E-7,0
EUTELSAT HOTBIRD 13G,2022-146A,2026-07-19T13:14:09.098880,1.00272145,.00021163,0.0490,226.0933,311.8229,330.9666,0,U,54225,999,779,0,.83E-6,0
ZHONGXING-19,2022-148A,2026-07-19T14:27:38.623968,1.00271992,.00032199,0.0194,64.4222,73.6062,179.4490,0,U,54230,999,1370,0,-.86E-6,0
GALAXY 31 (G-31),2022-153A,2026-07-19T12:36:05.247936,1.00265569,.00008546,0.0126,219.4783,253.5429,252.2926,0,U,54243,999,745,0,.1E-6,0
GALAXY 32 (G-32),2022-153B,2026-07-19T05:35:38.659776,1.00272371,.00014106,0.0148,58.0820,351.1877,240.6668,0,U,54244,999,1346,0,-.179E-5,0
EUTELSAT 10B,2022-157A,2026-07-19T13:13:16.681728,1.00268780,.00017242,0.0606,96.3553,5.1248,44.1210,0,U,54259,999,1335,0,.63E-6,0
GALAXY 35 (G-35),2022-170A,2026-07-19T12:44:04.482816,1.00272227,.00019521,0.0180,94.4712,21.9149,278.8386,0,U,54741,999,1321,0,-.166E-5,0
GALAXY 36 (G-36),2022-170B,2026-07-19T12:45:11.874816,1.00271759,.00026747,0.0200,139.5756,320.5934,299.4459,0,U,54742,999,1309,0,-.189E-5,0
METEOSAT-12 (MTG-I1),2022-170C,2026-07-19T08:02:31.693920,1.00268969,.00039984,0.7295,20.4589,81.1274,315.7994,0,U,54743,999,1330,0,-.14E-6,0
SHIJIAN-23 (SJ-23),2023-002A,2026-07-18T19:51:30.123936,1.00075370,.0003409,3.7969,77.9147,274.1099,9.0286,0,U,55131,999,1282,0,-.364E-5,0
APSTAR-6E,2023-005A,2026-07-18T17:26:32.089056,1.00269790,.00026471,0.0138,259.8324,293.4126,138.9092,0,U,55239,999,1900,0,0,0
USA 342,2023-008A,2026-07-15T08:20:54.831840,1.00268904,.0000237,0.0068,33.1422,23.5747,25.6345,0,U,55263,999,1279,0,0,0
LDPE-3A,2023-008B,2026-07-19T13:44:53.473632,0.99148533,.00016151,2.4305,81.2650,71.4864,110.9295,0,U,55264,999,1213,0,-.232E-5,0
ELEKTRO-L 4,2023-016A,2026-07-18T17:10:45.165792,1.00270790,.00015665,0.1119,278.8686,257.5747,183.5389,0,U,55506,999,1265,0,-.65E-6,0
AMAZONAS NEXUS,2023-017A,2026-07-19T12:53:11.108832,1.00269936,.00044978,0.0357,46.0375,42.7705,340.8031,0,U,55508,999,736,0,-.287E-5,0
ZHONGXING-26,2023-023A,2026-07-18T12:06:33.276384,1.00271220,.0003368,0.0638,71.5640,34.1118,137.3754,0,U,55686,999,1254,0,-.361E-5,0
LUCH-5X (OLYMP-K 2),2023-031A,2026-07-18T19:53:03.777216,1.00272916,.0001205,0.0278,94.8629,193.9310,8.0831,0,U,55841,999,1225,0,.26E-6,0
GAOFEN-13 02,2023-036A,2026-07-19T15:06:03.053664,1.00273799,.00035882,1.0292,5.1542,338.3483,328.6952,0,U,55912,999,1241,0,-.222E-5,0
SES-18,2023-038A,2026-07-19T12:41:12.258240,1.00270732,.00008044,0.0424,247.6487,307.5162,189.3415,0,U,55970,999,1242,0,-.105E-5,0
SES-19,2023-038B,2026-07-19T11:54:38.662848,1.00272485,.00017456,0.0464,266.6128,215.7641,218.6491,0,U,55971,999,1241,0,.83E-6,0
INTELSAT 40E (IS-40E),2023-052A,2026-07-19T12:44:41.923392,1.00271275,.0002629,0.0173,76.7021,65.9172,254.8873,0,U,56174,999,1214,0,0,0
VIASAT-3 F1,2023-060A,2026-07-19T12:45:19.363104,1.00273353,.00007219,0.0124,36.2092,67.6221,295.8706,0,U,56370,999,1175,0,0,0
ARCTURUS,2023-060B,2026-07-19T13:40:16.417344,1.00592680,.00012503,2.8547,79.5357,133.4368,33.5471,0,U,56371,999,1178,0,-.358E-5,0
GS-1,2023-060C,2026-07-19T13:36:01.824192,1.00265534,.00033004,2.8059,79.4448,279.1450,231.9883,0,U,56372,999,786,0,-.226E-5,0
BEIDOU-3 G4,2023-066A,2026-07-19T15:07:38.781408,1.00271397,.00050298,0.4569,340.2148,184.3689,139.8112,0,U,56564,999,1171,0,-.285E-5,0
ARABSAT-7B (BADR-8),2023-075A,2026-07-19T13:18:01.228032,1.00271302,.00033681,0.0749,32.1076,1.0592,129.6638,0,U,56757,999,1144,0,.14E-5,0
NVS-01 (IRNSS-1J),2023-076A,2026-07-19T13:47:30.723360,1.00276766,.00030296,2.0912,242.8628,19.1327,11.7007,0,U,56759,999,1144,0,-.339E-5,0
NUSANTARA TIGA (SATRIA),2023-086A,2026-07-19T13:52:15.267936,1.00268321,.00021104,0.0360,16.4333,315.8763,319.1057,0,U,57045,999,1008,0,-.239E-5,0
H2SAT (HEINRICH HERTZ),2023-093A,2026-07-19T13:10:39.433728,1.00270802,.0000389,0.0245,105.4240,246.4245,143.8435,0,U,57213,999,1124,0,-.2E-7,0
SYRACUSE 4B,2023-093B,2026-07-19T09:43:26.922144,1.00277168,.00003816,0.0193,61.2310,183.2197,192.1382,0,U,57214,999,728,0,-.57E-6,0
JUPITER 3 (ECHOSTAR 24),2023-108A,2026-07-19T10:31:50.066688,1.00269581,.00010557,0.0152,46.7510,65.3250,247.9176,0,U,57479,999,1096,0,-.154E-5,0
