LDPE-2                  
1 54219U 22144A   26200.32961404 -.00000004  00000+0  00000+0 0  9996
2 54219   5.6744  63.2752 0002463 107.1011 118.9137  1.00545431 12163
EUTELSAT HOTBIRD 13G    
1 54225U 22146A   26200.55149420  .00000083  00000+0  00000+0 0  9992
2 54225   0.0490 226.0933 0002116 311.8229 330.9666  1.00272145  7792
ZHONGXING-19            
1 54230U 22148A   26200.60253037 -.00000086  00000+0  00000+0 0  9990
2 54230   0.0194  64.4222 0003219  73.6062 179.4490  1.00271992 13705
GALAXY 31 (G-31)        
1 54243U 22153A   26200.52506074  .00000010  00000+0  00000+0 0  9999
2 54243   0.0126 219.4783 0000854 253.5429 252.2926  1.00265569  7458
GALAXY 32 (G-32)        
1 54244U 22153B   26200.23308634 -.00000179  00000+0  00000+0 0  9997
2 54244   0.0148  58.0820 0001410 351.1877 240.6668  1.00272371 13464
EUTELSAT 10B            
1 54259U 22157A   26200.55088752  .00000063  00000+0  00000+0 0  9999
2 54259   0.0606  96.3553 0001724   5.1248  44.1210  1.00268780 13350
GALAXY 35 (G-35)        
1 54741U 22170A   26200.53060744 -.00000166  00000+0  00000+0 0  9994
2 54741   0.0180  94.4712 0001952  21.9149 278.8386  1.00272227 13214
GALAXY 36 (G-36)        
1 54742U 22170B   26200.53138744 -.00000189  00000+0  00000+0 0  9996
2 54742   0.0200 139.5756 0002674 320.5934 299.4459  1.00271759 13094
METEOSAT-12 (MTG-I1)    
1 54743U 22170C   26200.33508905 -.00000014  00000+0  00000+0 0  9992
2 54743   0.7295  20.4589 0003998  81.1274 315.7994  1.00268969 13304
SHIJIAN-23 (SJ-23)      
1 55131U 23002A   26199.82743199 -.00000364  00000+0  00000+0 0  9994
2 55131   3.7969  77.9147 0003409 274.1099   9.0286  1.00075370 12825
APSTAR-6E               
1 55239U 23005A   26199.72676029  .00000000  00000+0  00000+0 0  9998
2 55239   0.0138 259.8324 0002647 293.4126 138.9092  1.00269790 19003
USA 342                 
1 55263U 23008A   26196.34785685  .00000000  00000+0  00000+0 0  9992
2 55263   0.0068  33.1422 0000237  23.5747  25.6345  1.00268904 12796
LDPE-3A                 
1 55264U 23008B   26200.57284113 -.00000232  00000+0  00000+0 0  9992
2 55264   2.4305  81.2650 0001615  71.4864 110.9295  0.99148533 12139
ELEKTRO-L 4             
1 55506U 23016A   26199.71580053 -.00000065  00000+0  00000+0 0  9999
2 55506   0.1119 278.8686 0001566 257.5747 183.5389  1.00270790 12652
AMAZONAS NEXUS          
1 55508U 23017A   26200.53693413 -.00000287  00000+0  00000+0 0  9996
2 55508   0.0357  46.0375 0004497  42.7705 340.8031  1.00269936  7365
ZHONGXING-26            
1 55686U 23023A   26199.50455181 -.00000361  00000+0  00000+0 0  9995
2 55686   0.0638  71.5640 0003368  34.1118 137.3754  1.00271220 12547
LUCH-5X (OLYMP-K 2)     
1 55841U 23031A   26199.82851594  .00000026  00000+0  00000+0 0  9997
2 55841   0.0278  94.8629 0001205 193.9310   8.0831  1.00272916 12252
GAOFEN-13 02            
1 55912U 23036A   26200.62920201 -.00000222  00000+0  00000+0 0  9993
2 55912   1.0292   5.1542 0003588 338.3483 328.6952  1.00273799 12412
SES-18                  
1 55970U 23038A   26200.52861410 -.00000105  00000+0  00000+0 0  9994
2 55970   0.0424 247.6487 0000804 307.5162 189.3415  1.00270732 12424
SES-19                  
1 55971U 23038B   26200.49628082  .00000083  00000+0  00000+0 0  9991
2 55971   0.0464 266.6128 0001745 215.7641 218.6491  1.00272485 12415
INTELSAT 40E (IS-40E)   
1 56174U 23052A   26200.53104078  .00000000  00000+0  00000+0 0  9991
2 56174   0.0173  76.7021 0002629  65.9172 254.8873  1.00271275 12148
VIASAT-3 F1             
1 56370U 23060A   26200.53147411  .00000000  00000+0  00000+0 0  9996
2 56370   0.0124  36.2092 0000721  67.6221 295.8706  1.00273353 11751
ARCTURUS                
1 56371U 23060B   26200.56963446 -.00000358  00000+0  00000+0 0  9991
2 56371   2.8547  79.5357 0001250 133.4368  33.5471  1.00592680 11783
GS-1                    
1 56372U 23060C   26200.56668778 -.00000226  00000+0  00000+0 0  9996
2 56372   2.8059  79.4448 0003300 279.1450 231.9883  1.00265534  7860
BEIDOU-3 G4             
1 56564U 23066A   26200.63030997 -.00000285  00000+0  00000+0 0  9994
2 56564   0.4569 340.2148 0005029 184.3689 139.8112  1.00271397 11714
ARABSAT-7B (BADR-8)     
1 56757U 23075A   26200.55418088  .00000140  00000+0  00000+0 0  9999
2 56757   0.0749  32.1076 0003368   1.0592 129.6638  1.00271302 11449
NVS-01 (IRNSS-1J)       
1 56759U 23076A   26200.57466115 -.00000339  00000+0  00000+0 0  9999
2 56759   2.0912 242.8628 0003029  19.1327  11.7007  1.00276766 11448
NUSANTARA TIGA (SATRIA) 
1 57045U 23086A   26200.57795449 -.00000239  00000+0  00000+0 0  9993
2 57045   0.0360  16.4333 0002110 315.8763 319.1057  1.00268321 10087
H2SAT (HEINRICH HERTZ)  
1 57213U 23093A   26200.54906752 -.00000002  00000+0  00000+0 0  9994
2 57213   0.0245 105.4240 0000389 246.4245 143.8435  1.00270802 11240
SYRACUSE 4B             
1 57214U 23093B   26200.40517271 -.00000057  00000+0  00000+0 0  9994
2 57214   0.0193  61.2310 0000381 183.2197 192.1382  1.00277168  7285
JUPITER 3 (ECHOSTAR 24) 
1 57479U 23108A   26200.43877392 -.00000154  00000+0  00000+0 0  9998
2 57479   0.0152  46.7510 0001055  65.3250 247.9176  1.00269581 10961
